[{"OBJECT_NAME":"KUIPER-00101","OBJECT_ID":"2025-228A","EPOCH":"2026-03-09T05:20:33.862560","MEAN_MOTION":14.79939717,"ECCENTRICITY":7.84e-5,"INCLINATION":51.8989,"RA_OF_ASC_NODE":2.6437,"ARG_OF_PERICENTER":94.525,"MEAN_ANOMALY":265.5802,"EPHEMERIS_TYPE":0,"CLASSIFICATION_TYPE":"U","NORAD_CAT_ID":65947,"ELEMENT_SET_NO":999,"REV_AT_EPOCH":2316,"BSTAR":0.00043135535,"MEAN_MOTION_DOT":3.069e-5,"MEAN_MOTION_DDOT":0},{"OBJECT_NAME":"SL-14 R\/B","OBJECT_ID":"1995-046C","EPOCH":"2026-03-09T21:50:36.185856","MEAN_MOTION":14.80314206,"ECCENTRICITY":0.0023586,"INCLINATION":82.5282,"RA_OF_ASC_NODE":225.2244,"ARG_OF_PERICENTER":236.9942,"MEAN_ANOMALY":284.2588,"EPHEMERIS_TYPE":0,"CLASSIFICATION_TYPE":"U","NORAD_CAT_ID":23659,"ELEMENT_SET_NO":999,"REV_AT_EPOCH":64532,"BSTAR":7.9944983e-5,"MEAN_MOTION_DOT":6.35e-6,"MEAN_MOTION_DDOT":0}]
